[{"OBJECT_NAME":"ONEWEB-0116","OBJECT_ID":"2021-025E","EPOCH":"2026-06-15T03:30:13.663872","MEAN_MOTION":13.13466365,"ECCENTRICITY":0.0001489,"INCLINATION":87.8948,"RA_OF_ASC_NODE":320.6187,"ARG_OF_PERICENTER":88.006,"MEAN_ANOMALY":272.1239,"EPHEMERIS_TYPE":0,"CLASSIFICATION_TYPE":"U","NORAD_CAT_ID":48046,"ELEMENT_SET_NO":999,"REV_AT_EPOCH":25338,"BSTAR":0.0027811999999999997,"MEAN_MOTION_DOT":1.028e-05,"MEAN_MOTION_DDOT":0.0},{"OBJECT_NAME":"ONEWEB-0150","OBJECT_ID":"2021-025F","EPOCH":"2026-06-15T02:56:07.533024","MEAN_MOTION":13.13469672,"ECCENTRICITY":0.0002003,"INCLINATION":87.896,"RA_OF_ASC_NODE":320.6256,"ARG_OF_PERICENTER":93.9302,"MEAN_ANOMALY":266.2056,"EPHEMERIS_TYPE":0,"CLASSIFICATION_TYPE":"U","NORAD_CAT_ID":48047,"ELEMENT_SET_NO":999,"REV_AT_EPOCH":25327,"BSTAR":0.00046515,"MEAN_MOTION_DOT":1.83e-06,"MEAN_MOTION_DDOT":0.0},{"OBJECT_NAME":"ONEWEB-0107","OBJECT_ID":"2021-025G","EPOCH":"2026-06-15T02:58:33.784896","MEAN_MOTION":13.1346968,"ECCENTRICITY":0.0001967,"INCLINATION":87.8961,"RA_OF_ASC_NODE":320.6212,"ARG_OF_PERICENTER":102.2852,"MEAN_ANOMALY":257.8498,"EPHEMERIS_TYPE":0,"CLASSIFICATION_TYPE":"U","NORAD_CAT_ID":48048,"ELEMENT_SET_NO":999,"REV_AT_EPOCH":25325,"BSTAR":0.00020369000000000002,"MEAN_MOTION_DOT":8.7e-07,"MEAN_MOTION_DDOT":0.0},{"OBJECT_NAME":"ONEWEB-0101","OBJECT_ID":"2021-025H","EPOCH":"2026-06-15T05:44:18.876768","MEAN_MOTION":13.13471427,"ECCENTRICITY":0.0001772,"INCLINATION":87.8948,"RA_OF_ASC_NODE":320.6141,"ARG_OF_PERICENTER":101.2969,"MEAN_ANOMALY":258.8359,"EPHEMERIS_TYPE":0,"CLASSIFICATION_TYPE":"U","NORAD_CAT_ID":48049,"ELEMENT_SET_NO":999,"REV_AT_EPOCH":25324,"BSTAR":-0.00035483,"MEAN_MOTION_DOT":-1.17e-06,"MEAN_MOTION_DDOT":0.0},{"OBJECT_NAME":"ONEWEB-0113","OBJECT_ID":"2021-025J","EPOCH":"2026-06-15T04:30:38.042784","MEAN_MOTION":13.13893647,"ECCENTRICITY":0.0001835,"INCLINATION":87.8955,"RA_OF_ASC_NODE":320.5349,"ARG_OF_PERICENTER":93.1843,"MEAN_ANOMALY":266.9496,"EPHEMERIS_TYPE":0,"CLASSIFICATION_TYPE":"U","NORAD_CAT_ID":48050,"ELEMENT_SET_NO":999,"REV_AT_EPOCH":25334,"BSTAR":0.00065976,"MEAN_MOTION_DOT":2.55e-06,"MEAN_MOTION_DDOT":0.0},{"OBJECT_NAME":"ONEWEB-0112","OBJECT_ID":"2021-025K","EPOCH":"2026-06-15T03:05:52.365984","MEAN_MOTION":13.13470035,"ECCENTRICITY":0.0001761,"INCLINATION":87.8962,"RA_OF_ASC_NODE":320.6181,"ARG_OF_PERICENTER":104.0892,"MEAN_ANOMALY":256.0434,"EPHEMERIS_TYPE":0,"CLASSIFICATION_TYPE":"U","NORAD_CAT_ID":48051,"ELEMENT_SET_NO":999,"REV_AT_EPOCH":25332,"BSTAR":-2.858e-05,"MEAN_MOTION_DOT":2e-08,"MEAN_MOTION_DDOT":0.0},{"OBJECT_NAME":"ONEWEB-0156","OBJECT_ID":"2021-025L","EPOCH":"2026-06-15T03:18:03.250368","MEAN_MOTION":13.13469804,"ECCENTRICITY":0.0001946,"INCLINATION":87.896,"RA_OF_ASC_NODE":320.6264,"ARG_OF_PERICENTER":97.7285,"MEAN_ANOMALY":262.4065,"EPHEMERIS_TYPE":0,"CLASSIFICATION_TYPE":"U","NORAD_CAT_ID":48052,"ELEMENT_SET_NO":999,"REV_AT_EPOCH":25330,"BSTAR":-0.00068306,"MEAN_MOTION_DOT":-2.37e-06,"MEAN_MOTION_DDOT":0.0},{"OBJECT_NAME":"ONEWEB-0161","OBJECT_ID":"2021-025M","EPOCH":"2026-06-15T04:31:11.478720","MEAN_MOTION":13.13470596,"ECCENTRICITY":0.0001967,"INCLINATION":87.8959,"RA_OF_ASC_NODE":320.6178,"ARG_OF_PERICENTER":99.6106,"MEAN_ANOMALY":260.5246,"EPHEMERIS_TYPE":0,"CLASSIFICATION_TYPE":"U","NORAD_CAT_ID":48053,"ELEMENT_SET_NO":999,"REV_AT_EPOCH":25324,"BSTAR":0.0008829,"MEAN_MOTION_DOT":3.35e-06,"MEAN_MOTION_DDOT":0.0},{"OBJECT_NAME":"ONEWEB-0158","OBJECT_ID":"2021-025N","EPOCH":"2026-06-15T03:32:41.315424","MEAN_MOTION":13.1347118,"ECCENTRICITY":0.0001607,"INCLINATION":87.8958,"RA_OF_ASC_NODE":320.6228,"ARG_OF_PERICENTER":94.4403,"MEAN_ANOMALY":265.691,"EPHEMERIS_TYPE":0,"CLASSIFICATION_TYPE":"U","NORAD_CAT_ID":48054,"ELEMENT_SET_NO":999,"REV_AT_EPOCH":25336,"BSTAR":-0.0012185,"MEAN_MOTION_DOT":-4.32e-06,"MEAN_MOTION_DDOT":0.0},{"OBJECT_NAME":"ONEWEB-0157","OBJECT_ID":"2021-025P","EPOCH":"2026-06-15T04:09:15.800256","MEAN_MOTION":13.1347019,"ECCENTRICITY":0.0002037,"INCLINATION":87.8956,"RA_OF_ASC_NODE":320.6238,"ARG_OF_PERICENTER":106.6134,"MEAN_ANOMALY":253.522,"EPHEMERIS_TYPE":0,"CLASSIFICATION_TYPE":"U","NORAD_CAT_ID":48055,"ELEMENT_SET_NO":999,"REV_AT_EPOCH":25330,"BSTAR":0.00016289,"MEAN_MOTION_DOT":7.2e-07,"MEAN_MOTION_DDOT":0.0},{"OBJECT_NAME":"ONEWEB-0162","OBJECT_ID":"2021-025Q","EPOCH":"2026-06-15T03:34:55.413408","MEAN_MOTION":13.13469403,"ECCENTRICITY":0.0001994,"INCLINATION":87.8955,"RA_OF_ASC_NODE":320.6291,"ARG_OF_PERICENTER":94.2674,"MEAN_ANOMALY":265.8683,"EPHEMERIS_TYPE":0,"CLASSIFICATION_TYPE":"U","NORAD_CAT_ID":48056,"ELEMENT_SET_NO":999,"REV_AT_EPOCH":25327,"BSTAR":-0.001045,"MEAN_MOTION_DOT":-3.69e-06,"MEAN_MOTION_DDOT":0.0},{"OBJECT_NAME":"ONEWEB-0155","OBJECT_ID":"2021-025R","EPOCH":"2026-06-15T03:44:52.004544","MEAN_MOTION":13.13470203,"ECCENTRICITY":0.0001802,"INCLINATION":87.8956,"RA_OF_ASC_NODE":320.6241,"ARG_OF_PERICENTER":101.9687,"MEAN_ANOMALY":258.1644,"EPHEMERIS_TYPE":0,"CLASSIFICATION_TYPE":"U","NORAD_CAT_ID":48057,"ELEMENT_SET_NO":999,"REV_AT_EPOCH":25341,"BSTAR":-0.00087508,"MEAN_MOTION_DOT":-3.07e-06,"MEAN_MOTION_DDOT":0.0},{"OBJECT_NAME":"ONEWEB-0149","OBJECT_ID":"2021-025S","EPOCH":"2026-06-15T04:16:34.377024","MEAN_MOTION":13.13470224,"ECCENTRICITY":0.0002014,"INCLINATION":87.896,"RA_OF_ASC_NODE":320.6233,"ARG_OF_PERICENTER":93.6336,"MEAN_ANOMALY":266.5023,"EPHEMERIS_TYPE":0,"CLASSIFICATION_TYPE":"U","NORAD_CAT_ID":48058,"ELEMENT_SET_NO":999,"REV_AT_EPOCH":25322,"BSTAR":0.00070632,"MEAN_MOTION_DOT":2.71e-06,"MEAN_MOTION_DDOT":0.0},{"OBJECT_NAME":"ONEWEB-0148","OBJECT_ID":"2021-025T","EPOCH":"2026-06-15T03:22:55.806816","MEAN_MOTION":13.13470328,"ECCENTRICITY":0.0002427,"INCLINATION":87.8952,"RA_OF_ASC_NODE":320.6374,"ARG_OF_PERICENTER":93.583,"MEAN_ANOMALY":266.5577,"EPHEMERIS_TYPE":0,"CLASSIFICATION_TYPE":"U","NORAD_CAT_ID":48059,"ELEMENT_SET_NO":999,"REV_AT_EPOCH":25334,"BSTAR":-0.00072386,"MEAN_MOTION_DOT":-2.52e-06,"MEAN_MOTION_DDOT":0.0},{"OBJECT_NAME":"ONEWEB-0160","OBJECT_ID":"2021-025U","EPOCH":"2026-06-15T03:47:18.072384","MEAN_MOTION":13.13471247,"ECCENTRICITY":0.0001451,"INCLINATION":87.8951,"RA_OF_ASC_NODE":320.6303,"ARG_OF_PERICENTER":73.8363,"MEAN_ANOMALY":286.2926,"EPHEMERIS_TYPE":0,"CLASSIFICATION_TYPE":"U","NORAD_CAT_ID":48060,"ELEMENT_SET_NO":999,"REV_AT_EPOCH":25329,"BSTAR":-0.00072331,"MEAN_MOTION_DOT":-2.51e-06,"MEAN_MOTION_DDOT":0.0},{"OBJECT_NAME":"ONEWEB-0163","OBJECT_ID":"2021-025V","EPOCH":"2026-06-15T03:25:21.382176","MEAN_MOTION":13.13471115,"ECCENTRICITY":0.0001958,"INCLINATION":87.8958,"RA_OF_ASC_NODE":320.6274,"ARG_OF_PERICENTER":104.1923,"MEAN_ANOMALY":255.9424,"EPHEMERIS_TYPE":0,"CLASSIFICATION_TYPE":"U","NORAD_CAT_ID":48061,"ELEMENT_SET_NO":999,"REV_AT_EPOCH":25341,"BSTAR":-0.00089634,"MEAN_MOTION_DOT":-3.15e-06,"MEAN_MOTION_DDOT":0.0}]