ONEWEB-0116             
1 48046U 21025E   26166.14599148  .00001028  00000+0  27812-2 0  9996
2 48046  87.8948 320.6187 0001489  88.0060 272.1239 13.13466365253384
ONEWEB-0150             
1 48047U 21025F   26166.12230941  .00000183  00000+0  46515-3 0  9991
2 48047  87.8960 320.6256 0002003  93.9302 266.2056 13.13469672253276
ONEWEB-0107             
1 48048U 21025G   26166.12400214  .00000087  00000+0  20369-3 0  9996
2 48048  87.8961 320.6212 0001967 102.2852 257.8498 13.13469680253255
ONEWEB-0101             
1 48049U 21025H   26166.23910737 -.00000117  00000+0 -35483-3 0  9994
2 48049  87.8948 320.6141 0001772 101.2969 258.8359 13.13471427253242
ONEWEB-0113             
1 48050U 21025J   26166.18794031  .00000255  00000+0  65976-3 0  9998
2 48050  87.8955 320.5349 0001835  93.1843 266.9496 13.13893647253346
ONEWEB-0112             
1 48051U 21025K   26166.12907831  .00000002  00000+0 -28580-4 0  9999
2 48051  87.8962 320.6181 0001761 104.0892 256.0434 13.13470035253326
ONEWEB-0156             
1 48052U 21025L   26166.13753762 -.00000237  00000+0 -68306-3 0  9993
2 48052  87.8960 320.6264 0001946  97.7285 262.4065 13.13469804253307
ONEWEB-0161             
1 48053U 21025M   26166.18832730  .00000335  00000+0  88290-3 0  9993
2 48053  87.8959 320.6178 0001967  99.6106 260.5246 13.13470596253249
ONEWEB-0158             
1 48054U 21025N   26166.14770041 -.00000432  00000+0 -12185-2 0  9995
2 48054  87.8958 320.6228 0001607  94.4403 265.6910 13.13471180253366
ONEWEB-0157             
1 48055U 21025P   26166.17309954  .00000072  00000+0  16289-3 0  9998
2 48055  87.8956 320.6238 0002037 106.6134 253.5220 13.13470190253305
ONEWEB-0162             
1 48056U 21025Q   26166.14925247 -.00000369  00000+0 -10450-2 0  9999
2 48056  87.8955 320.6291 0001994  94.2674 265.8683 13.13469403253276
ONEWEB-0155             
1 48057U 21025R   26166.15615746 -.00000307  00000+0 -87508-3 0  9992
2 48057  87.8956 320.6241 0001802 101.9687 258.1644 13.13470203253419
ONEWEB-0149             
1 48058U 21025S   26166.17817566  .00000271  00000+0  70632-3 0  9997
2 48058  87.8960 320.6233 0002014  93.6336 266.5023 13.13470224253226
ONEWEB-0148             
1 48059U 21025T   26166.14092369 -.00000252  00000+0 -72386-3 0  9990
2 48059  87.8952 320.6374 0002427  93.5830 266.5577 13.13470328253342
ONEWEB-0160             
1 48060U 21025U   26166.15784806 -.00000251  00000+0 -72331-3 0  9996
2 48060  87.8951 320.6303 0001451  73.8363 286.2926 13.13471247253295
ONEWEB-0163             
1 48061U 21025V   26166.14260859 -.00000315  00000+0 -89634-3 0  9998
2 48061  87.8958 320.6274 0001958 104.1923 255.9424 13.13471115253416
